start=new Date('2022-01-03T00:00:00.000Z').valueOf();
sats=[{"EPOCH":"2022-01-02T14:00:01.000224","DECAY_DATE":null,"SEMIMAJOR_AXIS":"6705.958","PERIOD":"91.086","RA_OF_ASC_NODE":"291.1928","TIME_SYSTEM":"UTC","OBJECT_ID":"2021-125L","REF_FRAME":"TEME","NORAD_CAT_ID":"50166","EPHEMERIS_TYPE":"0","PERIAPSIS":"327.178","OBJECT_TYPE":"PAYLOAD","ELEMENT_SET_NO":"999","BSTAR":"-0.00455000000000","MEAN_MOTION_DOT":"-0.00819943","ECCENTRICITY":"0.00009620","SITE":"AFWTR","TLE_LINE1":"1 50166U 21125L   22002.58334491 -.00819943  00000-0 -45500-2 0  9994","LAUNCH_DATE":"2021-12-18","MEAN_ANOMALY":"19.7430","MEAN_ELEMENT_THEORY":"SGP4","FILE":"3255248","GP_ID":"192920945","OBJECT_NAME":"STARLINK-3305","RCS_SIZE":"LARGE","CENTER_NAME":"EARTH","APOAPSIS":"328.468","TLE_LINE2":"2 50166  53.2176 291.1928 0000962  96.2418  19.7430 15.80925997  2879","INCLINATION":"53.2176","MEAN_MOTION":"15.80925997","MEAN_MOTION_DDOT":"0.0000000000000","ARG_OF_PERICENTER":"96.2418","REV_AT_EPOCH":"287","COUNTRY_CODE":"US","CLASSIFICATION_TYPE":"U"},{"EPHEMERIS_TYPE":"0","NORAD_CAT_ID":"50167","REF_FRAME":"TEME","OBJECT_ID":"2021-125M","TIME_SYSTEM":"UTC","PERIOD":"91.186","SEMIMAJOR_AXIS":"6710.896","RA_OF_ASC_NODE":"289.1680","DECAY_DATE":null,"EPOCH":"2022-01-02T16:00:00.999936","MEAN_MOTION_DOT":"0.01109374","ECCENTRICITY":"0.01283170","BSTAR":"0.00336800000000","ELEMENT_SET_NO":"999","OBJECT_TYPE":"PAYLOAD","PERIAPSIS":"246.649","CENTER_NAME":"EARTH","RCS_SIZE":"LARGE","OBJECT_NAME":"STARLINK-3271","GP_ID":"192945688","FILE":"3255249","MEAN_ANOMALY":"172.7502","MEAN_ELEMENT_THEORY":"SGP4","LAUNCH_DATE":"2021-12-18","TLE_LINE1":"1 50167U 21125M   22002.66667824  .01109374  47044-3  33680-2 0  9990","SITE":"AFWTR","CLASSIFICATION_TYPE":"U","COUNTRY_CODE":"US","REV_AT_EPOCH":"288","ARG_OF_PERICENTER":"57.8168","MEAN_MOTION_DDOT":"0.0004704400000","INCLINATION":"53.1745","MEAN_MOTION":"15.79181164","TLE_LINE2":"2 50167  53.1745 289.1680 0128317  57.8168 172.7502 15.79181164  2882","APOAPSIS":"418.874"},{"CENTER_NAME":"EARTH","RCS_SIZE":"LARGE","OBJECT_NAME":"STARLINK-3296","GP_ID":"192921947","FILE":"3255248","LAUNCH_DATE":"2021-12-18","MEAN_ELEMENT_THEORY":"SGP4","MEAN_ANOMALY":"19.6762","TLE_LINE1":"1 50168U 21125N   22002.58334491 -.00820423  00000-0 -45494-2 0  9993","SITE":"AFWTR","CLASSIFICATION_TYPE":"U","COUNTRY_CODE":"US","ARG_OF_PERICENTER":"96.9870","REV_AT_EPOCH":"258","MEAN_MOTION_DDOT":"0.0000000000000","INCLINATION":"53.2176","MEAN_MOTION":"15.80942683","TLE_LINE2":"2 50168  53.2176 291.1914 0000956  96.9870  19.6762 15.80942683  2584","APOAPSIS":"328.417","EPHEMERIS_TYPE":"0","REF_FRAME":"TEME","NORAD_CAT_ID":"50168","OBJECT_ID":"2021-125N","PERIOD":"91.085","SEMIMAJOR_AXIS":"6705.911","RA_OF_ASC_NODE":"291.1914","TIME_SYSTEM":"UTC","DECAY_DATE":null,"EPOCH":"2022-01-02T14:00:01.000224","BSTAR":"-0.00454940000000","MEAN_MOTION_DOT":"-0.00820423","ECCENTRICITY":"0.00009560","ELEMENT_SET_NO":"999","PERIAPSIS":"327.134","OBJECT_TYPE":"PAYLOAD"},{"PERIAPSIS":"326.382","OBJECT_TYPE":"PAYLOAD","ELEMENT_SET_NO":"999","MEAN_MOTION_DOT":"-0.00824090","BSTAR":"-0.00451560000000","ECCENTRICITY":"0.00009620","DECAY_DATE":null,"EPOCH":"2022-01-02T12:00:00.999648","OBJECT_ID":"2021-125P","PERIOD":"91.070","SEMIMAJOR_AXIS":"6705.162","RA_OF_ASC_NODE":"291.5975","TIME_SYSTEM":"UTC","EPHEMERIS_TYPE":"0","REF_FRAME":"TEME","NORAD_CAT_ID":"50169","TLE_LINE2":"2 50169  53.2176 291.5975 0000962  90.2599 277.4148 15.81207602  2867","APOAPSIS":"327.672","INCLINATION":"53.2176","MEAN_MOTION":"15.81207602","ARG_OF_PERICENTER":"90.2599","REV_AT_EPOCH":"286","MEAN_MOTION_DDOT":"0.0000000000000","CLASSIFICATION_TYPE":"U","COUNTRY_CODE":"US","TLE_LINE1":"1 50169U 21125P   22002.50001157 -.00824090  00000-0 -45156-2 0  9995","SITE":"AFWTR","LAUNCH_DATE":"2021-12-18","MEAN_ANOMALY":"277.4148","MEAN_ELEMENT_THEORY":"SGP4","OBJECT_NAME":"STARLINK-3301","GP_ID":"192921698","FILE":"3255248","CENTER_NAME":"EARTH","RCS_SIZE":"MEDIUM"},{"CENTER_NAME":"EARTH","RCS_SIZE":"LARGE","OBJECT_NAME":"STARLINK-3245","FILE":"3255248","GP_ID":"192920446","MEAN_ANOMALY":"161.6012","MEAN_ELEMENT_THEORY":"SGP4","LAUNCH_DATE":"2021-12-18","TLE_LINE1":"1 50170U 21125Q   22002.41667824 -.00828421  00000-0 -45286-2 0  9992","SITE":"AFWTR","CLASSIFICATION_TYPE":"U","COUNTRY_CODE":"US","REV_AT_EPOCH":"284","ARG_OF_PERICENTER":"87.2570","MEAN_MOTION_DDOT":"0.0000000000000","MEAN_MOTION":"15.81268602","INCLINATION":"53.2175","TLE_LINE2":"2 50170  53.2175 292.0243 0001041  87.2570 161.6012 15.81268602  2845","APOAPSIS":"327.552","EPHEMERIS_TYPE":"0","NORAD_CAT_ID":"50170","REF_FRAME":"TEME","OBJECT_ID":"2021-125Q","TIME_SYSTEM":"UTC","PERIOD":"91.066","RA_OF_ASC_NODE":"292.0243","SEMIMAJOR_AXIS":"6704.989","DECAY_DATE":null,"EPOCH":"2022-01-02T10:00:00.999936","ECCENTRICITY":"0.00010410","MEAN_MOTION_DOT":"-0.00828421","BSTAR":"-0.00452860000000","ELEMENT_SET_NO":"999","PERIAPSIS":"326.156","OBJECT_TYPE":"PAYLOAD"},{"LAUNCH_DATE":"2021-12-18","MEAN_ELEMENT_THEORY":"SGP4","MEAN_ANOMALY":"35.8231","SITE":"AFWTR","TLE_LINE1":"1 50171U 21125R   22002.58334491 -.00818692  00000-0 -45458-2 0  9992","RCS_SIZE":"LARGE","CENTER_NAME":"EARTH","GP_ID":"192921196","FILE":"3255248","OBJECT_NAME":"STARLINK-3286","MEAN_MOTION":"15.80909515","INCLINATION":"53.2175","APOAPSIS":"328.542","TLE_LINE2":"2 50171  53.2175 291.1942 0001003  79.4690  35.8231 15.80909515  5196","COUNTRY_CODE":"US","CLASSIFICATION_TYPE":"U","MEAN_MOTION_DDOT":"0.0000000000000","ARG_OF_PERICENTER":"79.4690","REV_AT_EPOCH":"519","PERIOD":"91.087","RA_OF_ASC_NODE":"291.1942","SEMIMAJOR_AXIS":"6706.004","TIME_SYSTEM":"UTC","OBJECT_ID":"2021-125R","EPOCH":"2022-01-02T14:00:01.000224","DECAY_DATE":null,"REF_FRAME":"TEME","NORAD_CAT_ID":"50171","EPHEMERIS_TYPE":"0","ELEMENT_SET_NO":"999","OBJECT_TYPE":"PAYLOAD","PERIAPSIS":"327.197","BSTAR":"-0.00454580000000","MEAN_MOTION_DOT":"-0.00818692","ECCENTRICITY":"0.00010030"},{"RCS_SIZE":"LARGE","CENTER_NAME":"EARTH","FILE":"3255248","GP_ID":"192921448","OBJECT_NAME":"STARLINK-3287","LAUNCH_DATE":"2021-12-18","MEAN_ELEMENT_THEORY":"SGP4","MEAN_ANOMALY":"266.5151","SITE":"AFWTR","TLE_LINE1":"1 50172U 21125S   22002.50001157 -.00823693  00000-0 -45255-2 0  9997","COUNTRY_CODE":"US","CLASSIFICATION_TYPE":"U","MEAN_MOTION_DDOT":"0.0000000000000","ARG_OF_PERICENTER":"98.3586","REV_AT_EPOCH":"286","MEAN_MOTION":"15.81149509","INCLINATION":"53.2175","APOAPSIS":"327.822","TLE_LINE2":"2 50172  53.2175 291.6032 0000942  98.3586 266.5151 15.81149509  2862","REF_FRAME":"TEME","NORAD_CAT_ID":"50172","EPHEMERIS_TYPE":"0","PERIOD":"91.073","SEMIMAJOR_AXIS":"6705.326","RA_OF_ASC_NODE":"291.6032","TIME_SYSTEM":"UTC","OBJECT_ID":"2021-125S","EPOCH":"2022-01-02T12:00:00.999648","DECAY_DATE":null,"ECCENTRICITY":"0.00009420","MEAN_MOTION_DOT":"-0.00823693","BSTAR":"-0.00452550000000","ELEMENT_SET_NO":"999","PERIAPSIS":"326.559","OBJECT_TYPE":"PAYLOAD"},{"REV_AT_EPOCH":"288","ARG_OF_PERICENTER":"85.6615","MEAN_MOTION_DDOT":"0.0000000000000","CLASSIFICATION_TYPE":"U","COUNTRY_CODE":"US","TLE_LINE2":"2 50173  53.2178 290.7180 0001036  85.6615 172.9473 15.81290509  2883","APOAPSIS":"327.487","MEAN_MOTION":"15.81290509","INCLINATION":"53.2178","OBJECT_NAME":"STARLINK-3289","GP_ID":"192946690","FILE":"3255249","CENTER_NAME":"EARTH","RCS_SIZE":"LARGE","TLE_LINE1":"1 50173U 21125T   22002.66667824 -.00799516  00000-0 -43513-2 0  9995","SITE":"AFWTR","MEAN_ELEMENT_THEORY":"SGP4","MEAN_ANOMALY":"172.9473","LAUNCH_DATE":"2021-12-18","MEAN_MOTION_DOT":"-0.00799516","BSTAR":"-0.00435130000000","ECCENTRICITY":"0.00010360","PERIAPSIS":"326.098","OBJECT_TYPE":"PAYLOAD","ELEMENT_SET_NO":"999","EPHEMERIS_TYPE":"0","NORAD_CAT_ID":"50173","REF_FRAME":"TEME","DECAY_DATE":null,"EPOCH":"2022-01-02T16:00:00.999936","OBJECT_ID":"2021-125T","TIME_SYSTEM":"UTC","PERIOD":"91.065","RA_OF_ASC_NODE":"290.7180","SEMIMAJOR_AXIS":"6704.927"},{"RCS_SIZE":"LARGE","CENTER_NAME":"EARTH","GP_ID":"192920946","FILE":"3255248","OBJECT_NAME":"STARLINK-3292","LAUNCH_DATE":"2021-12-18","MEAN_ELEMENT_THEORY":"SGP4","MEAN_ANOMALY":"275.7294","SITE":"AFWTR","TLE_LINE1":"1 50174U 21125U   22002.50001157 -.00821753  00000-0 -45045-2 0  9991","COUNTRY_CODE":"US","CLASSIFICATION_TYPE":"U","MEAN_MOTION_DDOT":"0.0000000000000","ARG_OF_PERICENTER":"91.2142","REV_AT_EPOCH":"286","INCLINATION":"53.2174","MEAN_MOTION":"15.81193594","APOAPSIS":"327.711","TLE_LINE2":"2 50174  53.2174 291.5989 0000962  91.2142 275.7294 15.81193594  2868","REF_FRAME":"TEME","NORAD_CAT_ID":"50174","EPHEMERIS_TYPE":"0","SEMIMAJOR_AXIS":"6705.201","PERIOD":"91.070","RA_OF_ASC_NODE":"291.5989","TIME_SYSTEM":"UTC","OBJECT_ID":"2021-125U","EPOCH":"2022-01-02T12:00:00.999648","DECAY_DATE":null,"ECCENTRICITY":"0.00009620","MEAN_MOTION_DOT":"-0.00821753","BSTAR":"-0.00450450000000","ELEMENT_SET_NO":"999","OBJECT_TYPE":"PAYLOAD","PERIAPSIS":"326.421"},{"OBJECT_NAME":"STARLINK-3291","GP_ID":"192920697","FILE":"3255248","CENTER_NAME":"EARTH","RCS_SIZE":"LARGE","TLE_LINE1":"1 50175U 21125V   22002.58334491 -.00818822  00000-0 -45370-2 0  9994","SITE":"AFWTR","LAUNCH_DATE":"2021-12-18","MEAN_ELEMENT_THEORY":"SGP4","MEAN_ANOMALY":"22.0867","ARG_OF_PERICENTER":"95.2981","REV_AT_EPOCH":"519","MEAN_MOTION_DDOT":"0.0000000000000","CLASSIFICATION_TYPE":"U","COUNTRY_CODE":"US","TLE_LINE2":"2 50175  53.2175 291.1898 0001003  95.2981  22.0867 15.80954916  5197","APOAPSIS":"328.414","MEAN_MOTION":"15.80954916","INCLINATION":"53.2175","EPHEMERIS_TYPE":"0","REF_FRAME":"TEME","NORAD_CAT_ID":"50175","DECAY_DATE":null,"EPOCH":"2022-01-02T14:00:01.000224","OBJECT_ID":"2021-125V","PERIOD":"91.084","RA_OF_ASC_NODE":"291.1898","SEMIMAJOR_AXIS":"6705.876","TIME_SYSTEM":"UTC","ECCENTRICITY":"0.00010030","MEAN_MOTION_DOT":"-0.00818822","BSTAR":"-0.00453700000000","OBJECT_TYPE":"PAYLOAD","PERIAPSIS":"327.068","ELEMENT_SET_NO":"999"}];
